NORAD_CAT_ID,OBJECT_NAME,OBJECT_TYPE,EPOCH,MEAN_MOTION,ECCENTRICITY,INCLINATION,RA_OF_ASC_NODE,ARG_OF_PERICENTER,MEAN_ANOMALY,BSTAR,MEAN_MOTION_DOT,MEAN_MOTION_DDOT,TLE_LINE0,TLE_LINE1,TLE_LINE2,SEMIMAJOR_AXIS,PERIOD,APOGEE,PERIGEE,DECAYED
52472.0,STARLINK-3881,PAYLOAD,2024-08-06 12:12:33,15.08828606,0.0001671,53.2158,143.659,82.4492,277.669,0.00076581,0.00011917,0.0,0 STARLINK-3881,1 52472U 22049X   24219.50871651  .00011917  00000-0  76581-3 0  9997,2 52472  53.2158 143.6590 0001671  82.4492 277.6690 15.08828606124826,6917.915,95.438,540.936,538.624,0.0
52472.0,STARLINK-3881,PAYLOAD,2024-08-07 02:31:00,15.08883733,0.0001602,53.215,140.9803,83.297,276.8205,0.0023112,0.00036731,0.0,0 STARLINK-3881,1 52472U 22049X   24220.10486862  .00036731  00000-0  23112-2 0  9993,2 52472  53.2150 140.9803 0001602  83.2970 276.8205 15.08883733124914,6917.747,95.435,540.72,538.503,0.0
52472.0,STARLINK-3881,PAYLOAD,2024-08-08 07:07:56,15.08876091,0.0001498,53.2146,135.6259,50.3739,309.7385,0.0022939,0.00036445,0.0,0 STARLINK-3881,1 52472U 22049X   24221.29718601  .00036445  00000-0  22939-2 0  9991,2 52472  53.2146 135.6259 0001498  50.3739 309.7385 15.08876091124932,6917.77,95.435,540.671,538.599,0.0
52472.0,STARLINK-3881,PAYLOAD,2024-08-08 21:26:24,15.08853725,0.0001797,53.2153,132.9489,131.4631,228.6516,0.0028883,0.00045997,0.0,0 STARLINK-3881,1 52472U 22049X   24221.89334394  .00045997  00000-0  28883-2 0  9996,2 52472  53.2153 132.9489 0001797 131.4631 228.6516 15.08853725125181,6917.838,95.437,540.947,538.46,0.0
52472.0,STARLINK-3881,PAYLOAD,2024-08-09 03:47:56,15.08888816,0.0001285,53.2154,131.7607,111.4518,248.6611,0.0026038,0.00041451,0.0,0 STARLINK-3881,1 52472U 22049X   24222.15829586  .00041451  00000-0  26038-2 0  9999,2 52472  53.2154 131.7607 0001285 111.4518 248.6611 15.08888816125069,6917.731,95.434,540.485,538.707,0.0
52472.0,STARLINK-3881,PAYLOAD,2024-08-09 18:06:25,15.08834929,0.0001813,53.2148,129.0851,114.3787,245.7394,0.001801,0.00028487,0.0,0 STARLINK-3881,1 52472U 22049X   24222.75446700  .00028487  00000-0  18010-2 0  9993,2 52472  53.2148 129.0851 0001813 114.3787 245.7394 15.08834929125310,6917.896,95.438,541.015,538.507,0.0
52472.0,STARLINK-3881,PAYLOAD,2024-08-09 21:17:12,15.08832995,7.96e-05,53.2158,128.4892,110.1307,249.9771,0.0010285,0.00016115,0.0,0 STARLINK-3881,1 52472U 22049X   24222.88694741  .00016115  00000-0  10285-2 0  9998,2 52472  53.2158 128.4892 0000796 110.1307 249.9771 15.08832995125170,6917.902,95.438,540.317,539.216,0.0
52472.0,STARLINK-3881,PAYLOAD,2024-08-10 03:38:44,15.08842712,8.96e-05,53.2159,127.2996,105.7658,254.3433,0.0015918,0.00025138,0.0,0 STARLINK-3881,1 52472U 22049X   24223.15190856  .00025138  00000-0  15918-2 0  9990,2 52472  53.2159 127.2996 0000896 105.7658 254.3433 15.08842712125378,6917.872,95.437,540.357,539.117,0.0
52472.0,STARLINK-3881,PAYLOAD,2024-08-10 21:07:59,15.0886555,0.0001447,53.2148,124.0252,104.356,255.7593,0.0020155,0.00031957,0.0,0 STARLINK-3881,1 52472U 22049X   24223.88054974  .00031957  00000-0  20155-2 0  9995,2 52472  53.2148 124.0252 0001447 104.3560 255.7593 15.08865550125485,6917.802,95.436,540.668,538.666,0.0
52472.0,STARLINK-3881,PAYLOAD,2024-08-10 22:43:22,15.08868798,0.0001384,53.215,123.7275,103.5112,256.6034,0.0019777,0.00031352,0.0,0 STARLINK-3881,1 52472U 22049X   24223.94678845  .00031352  00000-0  19777-2 0  9998,2 52472  53.2150 123.7275 0001384 103.5112 256.6034 15.08868798125334,6917.792,95.436,540.615,538.7,0.0
52472.0,STARLINK-3881,PAYLOAD,2024-08-11 09:51:03,15.08873375,0.0001228,53.215,121.6456,68.8767,291.2357,0.0014057,0.00022175,0.0,0 STARLINK-3881,1 52472U 22049X   24224.41046099  .00022175  00000-0  14057-2 0  9990,2 52472  53.2150 121.6456 0001228  68.8767 291.2357 15.08873375125563,6917.778,95.435,540.493,538.794,0.0
52472.0,STARLINK-3881,PAYLOAD,2024-08-11 17:47:59,15.08869421,0.0002803,53.2158,120.1641,78.9259,281.2048,0.00030594,4.588e-05,0.0,0 STARLINK-3881,1 52472U 22049X   24224.74166405  .00004588  00000-0  30594-3 0  9993,2 52472  53.2158 120.1641 0002803  78.9259 281.2048 15.08869421125618,6917.79,95.436,541.595,537.716,0.0
52472.0,STARLINK-3881,PAYLOAD,2024-08-11 22:34:09,15.08860635,0.000168,53.2174,119.274,78.041,282.077,0.00067487,0.00010475,0.0,0 STARLINK-3881,1 52472U 22049X   24224.94038285  .00010475  00000-0  67487-3 0  9992,2 52472  53.2174 119.2740 0001680  78.0410 282.0770 15.08860635125481,6917.817,95.436,540.845,538.52,0.0
52472.0,STARLINK-3881,PAYLOAD,2024-08-12 01:44:54,15.0888783,0.0001218,53.2152,118.678,67.0578,293.0543,0.0036948,0.00059085,0.0,0 STARLINK-3881,1 52472U 22049X   24225.07285877  .00059085  00000-0  36948-2 0  9995,2 52472  53.2152 118.6780 0001218  67.0578 293.0543 15.08887830125660,6917.734,95.435,540.442,538.757,0.0
52472.0,STARLINK-3881,PAYLOAD,2024-08-12 09:41:51,15.08846131,0.0002337,53.2156,117.1893,72.2139,287.9108,0.0022716,0.00036057,0.0,0 STARLINK-3881,1 52472U 22049X   24225.40406377  .00036057  00000-0  22716-2 0  9994,2 52472  53.2156 117.1893 0002337  72.2139 287.9108 15.08846131125711,6917.862,95.437,541.343,538.11,0.0
52472.0,STARLINK-3881,PAYLOAD,2024-08-12 19:14:09,15.08885537,0.0001143,53.2144,115.4067,98.8737,261.2384,0.0059276,0.00095449,0.0,0 STARLINK-3881,1 52472U 22049X   24225.80149586  .00095449  00000-0  59276-2 0  9995,2 52472  53.2144 115.4067 0001143  98.8737 261.2384 15.08885537125774,6917.741,95.435,540.397,538.816,0.0
52472.0,STARLINK-3881,PAYLOAD,2024-08-12 22:24:55,15.08913523,0.0001043,53.2151,114.8121,106.7933,253.3174,0.0077085,0.00124825,0.0,0 STARLINK-3881,1 52472U 22049X   24225.93397157  .00124825  00000-0  77085-2 0  9997,2 52472  53.2151 114.8121 0001043 106.7933 253.3174 15.08913523125633,6917.656,95.433,540.242,538.799,0.0
52472.0,STARLINK-3881,PAYLOAD,2024-08-13 01:35:41,15.08850776,0.0001187,53.2147,114.2175,94.132,265.9808,0.0030571,0.00048717,0.0,0 STARLINK-3881,1 52472U 22049X   24226.06645670  .00048717  00000-0  30571-2 0  9992,2 52472  53.2147 114.2175 0001187  94.1320 265.9808 15.08850776125813,6917.847,95.437,540.534,538.891,0.0
52472.0,STARLINK-3881,PAYLOAD,2024-08-13 22:15:45,15.08816251,0.0001451,53.2148,110.3523,92.2158,267.9,0.0032098,0.00051133,0.0,0 STARLINK-3881,1 52472U 22049X   24226.92761202  .00051133  00000-0  32098-2 0  9999,2 52472  53.2148 110.3523 0001451  92.2158 267.9000 15.08816251125782,6917.953,95.439,540.822,538.814,0.0
52472.0,STARLINK-3881,PAYLOAD,2024-08-14 04:37:18,15.08875117,0.0001198,53.2142,109.1622,91.5355,268.5774,0.0054879,0.00088232,0.0,0 STARLINK-3881,1 52472U 22049X   24227.19256964  .00088232  00000-0  54879-2 0  9994,2 52472  53.2142 109.1622 0001198  91.5355 268.5774 15.08875117125984,6917.773,95.435,540.467,538.809,0.0
52472.0,STARLINK-3881,PAYLOAD,2024-08-14 22:06:31,15.0888846,0.0001282,53.2147,105.8916,80.0306,280.0831,0.002225,0.00035348,0.0,0 STARLINK-3881,1 52472U 22049X   24227.92119934  .00035348  00000-0  22250-2 0  9998,2 52472  53.2147 105.8916 0001282  80.0306 280.0831 15.08888460125934,6917.732,95.434,540.484,538.71,0.0
52472.0,STARLINK-3881,PAYLOAD,2024-08-14 23:41:54,15.08884455,0.0001222,53.2147,105.594,84.6216,275.4916,0.0017374,0.00027505,0.0,0 STARLINK-3881,1 52472U 22049X   24227.98743745  .00027505  00000-0  17374-2 0  9994,2 52472  53.2147 105.5940 0001222  84.6216 275.4916 15.08884455126104,6917.745,95.435,540.455,538.764,0.0
52472.0,STARLINK-3881,PAYLOAD,2024-08-15 09:14:12,15.08853617,0.0001231,53.215,103.8093,101.4628,258.6502,-0.00076923,-0.00012514,0.0,0 STARLINK-3881,1 52472U 22049X   24228.38487198 -.00012514  00000-0 -76923-3 0  9998,2 52472  53.2150 103.8093 0001231 101.4628 258.6502 15.08853617126002,6917.839,95.437,540.555,538.852,0.0
52472.0,STARLINK-3881,PAYLOAD,2024-08-15 21:57:18,15.08851879,9.21e-05,53.2152,101.4301,106.0045,254.1048,0.0010234,0.00016042,0.0,0 STARLINK-3881,1 52472U 22049X   24228.91479167  .00016042  00000-0  10234-2 0  9994,2 52472  53.2152 101.4301 0000921 106.0045 254.1048 15.08851879126249,6917.844,95.437,540.346,539.072,0.0
52472.0,STARLINK-3881,PAYLOAD,2024-08-16 21:48:04,15.08872358,0.0001274,53.2156,96.9695,93.8458,266.268,0.0019787,0.00031371,0.0,0 STARLINK-3881,1 52472U 22049X   24229.90838989  .00031371  00000-0  19787-2 0  9999,2 52472  53.2156  96.9695 0001274  93.8458 266.2680 15.08872358126230,6917.781,95.436,540.528,538.765,0.0
52472.0,STARLINK-3881,PAYLOAD,2024-08-17 00:58:51,15.08865177,0.0001267,53.2157,96.3772,89.273,270.8407,0.0012432,0.00019567,0.0,0 STARLINK-3881,1 52472U 22049X   24230.04086820  .00019567  00000-0  12432-2 0  9998,2 52472  53.2157  96.3772 0001267  89.2730 270.8407 15.08865177126414,6917.803,95.436,540.545,538.792,0.0
52472.0,STARLINK-3881,PAYLOAD,2024-08-17 15:17:19,15.08842538,0.0001437,53.2158,93.7001,88.2162,271.8995,0.0006739,0.00010454,0.0,0 STARLINK-3881,1 52472U 22049X   24230.63703197  .00010454  00000-0  67390-3 0  9996,2 52472  53.2158  93.7001 0001437  88.2162 271.8995 15.08842538126507,6917.873,95.437,540.732,538.744,0.0
52472.0,STARLINK-3881,PAYLOAD,2024-08-17 21:38:52,15.08846471,0.0001323,53.2167,92.5038,112.8502,247.263,0.00062021,9.598e-05,0.0,0 STARLINK-3881,1 52472U 22049X   24230.90199236  .00009598  00000-0  62021-3 0  9992,2 52472  53.2167  92.5038 0001323 112.8502 247.2630 15.08846471126389,6917.861,95.437,540.641,538.81,0.0
52472.0,STARLINK-3881,PAYLOAD,2024-08-18 00:49:38,15.08845516,0.0001106,53.2162,91.9147,90.0588,270.0531,0.00068605,0.00010649,0.0,0 STARLINK-3881,1 52472U 22049X   24231.03447384  .00010649  00000-0  68605-3 0  9990,2 52472  53.2162  91.9147 0001106  90.0588 270.0531 15.08845516126561,6917.864,95.437,540.494,538.963,0.0
52472.0,STARLINK-3881,PAYLOAD,2024-08-18 19:54:15,15.08858933,0.0001273,53.2168,88.346,76.3889,283.7245,0.00077871,0.00012133,0.0,0 STARLINK-3881,1 52472U 22049X   24231.82935015  .00012133  00000-0  77871-3 0  9995,2 52472  53.2168  88.3460 0001273  76.3889 283.7245 15.08858933126527,6917.823,95.436,540.568,538.807,0.0
